ORBCOMM FM06            
1 25118U 97084G   26186.42486906  .00001730  00000+0  50427-3 0  9998
2 25118  45.0146 324.9131 0000704 200.9001 188.9790 14.47612510497031
ORBCOMM FM04            
1 25159U 98007C   26187.90293998  .00000632  00000+0  26172-3 0  9990
2 25159 107.9630 209.9983 0041829 290.9893  68.6775 14.35774976479422
ORBCOMM FM19            
1 25415U 98046C   26187.24983253  .00001011  00000+0  36651-3 0  9990
2 25415  44.9923 152.9460 0003727   7.9238 124.3794 14.39529371459524
ORBCOMM FM20            
1 25416U 98046D   26186.00565869  .00000848  00000+0  32377-3 0  9991
2 25416  44.9918 166.9799 0002210 311.3972  48.6686 14.38089487459359
ORBCOMM FM27            
1 25481U 98053G   26188.11037683  .00000557  00000+0  22387-3 0  9990
2 25481  45.0041 240.7234 0002375 263.4664  96.5915 14.39176126453104
ORBCOMM FM32            
1 25982U 99065C   26188.10223728  .00000618  00000+0  25315-3 0  9998
2 25982  45.0153  78.9720 0004926 151.2429 208.8691 14.37160139389957
ORBCOMM FM109           
1 40086U 14040A   26187.75409146  .00000382  00000+0  11711-3 0  9993
2 40086  47.0043 358.9753 0001783 297.6087  62.4618 14.58866629637206
ORBCOMM FM110           
1 41182U 15081D   26187.69068044  .00000570  00000+0  15666-3 0  9990
2 41182  47.0018 269.2243 0003151 185.1194 174.9660 14.58911047560470
ORBCOMM FM118           
1 41183U 15081E   26187.72502997  .00000350  00000+0  11019-3 0  9999
2 41183  47.0034 269.3972 0002478 143.3178 216.7878 14.58899259560586
ORBCOMM FM112           
1 41184U 15081F   26188.00315159  .00000554  00000+0  15332-3 0  9992
2 41184  46.9972 176.5399 0004068 295.0020  65.0443 14.58928837561844
ORBCOMM FM113           
1 41185U 15081G   26187.98044066  .00000296  00000+0  98764-4 0  9999
2 41185  46.9988 177.0336 0002555 291.9011  68.1603 14.58876031561821
ORBCOMM FM108           
1 41187U 15081J   26188.14804315  .00000558  00000+0  15416-3 0  9994
2 41187  47.0048  87.8205 0003008 293.3239  66.7330 14.58901422562990
ORBCOMM FM117           
1 41188U 15081K   26188.11370752  .00000545  00000+0  15142-3 0  9997
2 41188  47.0013  86.6119 0003479 298.7282  61.3254 14.58888925563037
ORBCOMM FM116           
1 41189U 15081L   26188.02541887  .00000168  00000+0  71771-4 0  9999
2 41189  47.0006 176.8183 0001252 206.5256 153.5566 14.58900636561838
